{"type": "FeatureCollection", "features": [{"type": "Feature", "properties": {"name": "Kota Tasikmalaya"}, "geometry": {"type": "Polygon", "coordinates": [[[108.30944824500006, -7.337143332999972], [108.28819373000005, -7.335825539999973], [108.20214976400007, -7.286511060999942], [108.19331731000005, -7.269313203999957], [108.15996409600007, -7.292922540999939], [108.16428561000004, -7.364933386999951], [108.18560982700006, -7.430175274999954], [108.27614404600007, -7.417327344999933], [108.28686992500008, -7.347164464999935], [108.30944824500006, -7.337143332999972]]]}}, {"type": "Feature", "properties": {"name": "Bekasi"}, "geometry": {"type": "Polygon", "coordinates": [[[106.99100455000007, -6.36327748399998], [107.01000904600005, -6.402356048999934], [107.12912764900005, -6.471764776999976], [107.17395034500004, -6.485828759999947], [107.21687330900005, -6.461359669999979], [107.20231642300007, -6.413767948999975], [107.22492232400003, -6.305257946999973], [107.27614607300006, -6.267049977999932], [107.28380596400007, -6.137825188999955], [107.26245131400009, -6.111018854999941], [107.14311233300003, -6.070796647999941], [107.09419264700006, -6.02340328899993], [107.09822280200007, -5.93987988799995], [107.07607116700007, -5.968342476999965], [107.03291607300008, -5.956585559999951], [106.99490515900004, -6.028060340999957], [107.00986869400003, -6.077424637999968], [106.97003579300008, -6.090717922999943], [106.97150866800007, -6.154332759999932], [106.97300420900007, -6.174971727999946], [107.03378384100006, -6.198784046999947], [107.01436289100008, -6.279703672999972], [107.03725312000006, -6.321350602999928], [106.99100455000007, -6.36327748399998]]]}}, {"type": "Feature", "properties": {"name": "Indramayu"}, "geometry": {"type": "Polygon", "coordinates": [[[108.04312404500007, -6.639104527999962], [108.07510381400004, -6.575046847999943], [108.11569983200008, -6.553417520999972], [108.14845863700003, -6.606277688999967], [108.18773510900007, -6.609824800999945], [108.20739751700006, -6.573372226999936], [108.2763, -6.591750998999942], [108.32358557400005, -6.620817042999931], [108.36086278200008, -6.554777030999958], [108.43106083600009, -6.520386089999931], [108.46694188400005, -6.569927590999953], [108.53901827100009, -6.516149816999928], [108.53520378100006, -6.480680587999927], [108.48307993000009, -6.459278569999981], [108.42264396300004, -6.404541129999927], [108.37977760200005, -6.348298928999952], [108.36166647800007, -6.260894170999961], [108.25268106500005, -6.247990821999963], [108.15620976600007, -6.317184015999942], [108.09759069500006, -6.328563093999946], [108.02604046000005, -6.304367759999934], [107.91964404100008, -6.249802342999942], [107.92333448100004, -6.360173207999935], [107.90011694300006, -6.387137453999969], [107.89008862200006, -6.442900263999945], [107.92082557800006, -6.512434574999929], [107.90950660300007, -6.537573461999955], [107.85541626400004, -6.579062721999946], [107.90607866300007, -6.593852778999974], [107.93947355300008, -6.625350078999929], [108.02802770800008, -6.663958629999968], [108.04312404500007, -6.639104527999962]]]}}, {"type": "Feature", "properties": {"name": "Cirebon"}, "geometry": {"type": "Polygon", "coordinates": [[[108.76046993700004, -6.988018534999981], [108.76481547300006, -6.894449058999953], [108.82470017200006, -6.832263664999971], [108.83081628500008, -6.784949322999978], [108.75027564700008, -6.815435631999947], [108.68608997800004, -6.800095486999965], [108.67490636700006, -6.764953487999946], [108.61168998900007, -6.768395330999965], [108.59111272000007, -6.743301054999961], [108.52960491900006, -6.779184434999934], [108.52348391900006, -6.734393176999959], [108.56205457500005, -6.691326604999972], [108.53901827100009, -6.516149816999928], [108.46694188400005, -6.569927590999953], [108.43106083600009, -6.520386089999931], [108.36086278200008, -6.554777030999958], [108.32358557400005, -6.620817042999931], [108.33673, -6.670331998999927], [108.36756138400006, -6.69854485999997], [108.36553198100006, -6.759416461999933], [108.39796305300007, -6.795139257999949], [108.44403080900008, -6.781402961999959], [108.51185613200005, -6.799910434999958], [108.50988011700008, -6.856543430999977], [108.62103277500006, -6.910411728999975], [108.65312198500004, -6.903705029999969], [108.70767213900007, -6.937616258999981], [108.72176363900007, -6.990003491999971], [108.76046993700004, -6.988018534999981]]]}}, {"type": "Feature", "properties": {"name": "Karawang"}, "geometry": {"type": "Polygon", "coordinates": [[[107.22051254800004, -6.59074893199994], [107.34025739700007, -6.479322791999948], [107.43506634500005, -6.458077641999978], [107.50032537600003, -6.408376680999936], [107.52940379900008, -6.418358085999955], [107.57904827400006, -6.322251069999936], [107.58211530200003, -6.256132374999936], [107.64294133000004, -6.215523571999938], [107.62078109400005, -6.18765809599995], [107.54251343900006, -6.178507336999928], [107.47325100600005, -6.148590193999951], [107.40345704500004, -6.037576080999941], [107.34559410000008, -5.97176834499993], [107.26637041200007, -5.960663764999936], [107.18710162900004, -5.987873687999979], [107.13374084000009, -5.976256679999949], [107.09822280200007, -5.93987988799995], [107.09419264700006, -6.02340328899993], [107.14311233300003, -6.070796647999941], [107.26245131400009, -6.111018854999941], [107.28380596400007, -6.137825188999955], [107.27614607300006, -6.267049977999932], [107.22492232400003, -6.305257946999973], [107.20231642300007, -6.413767948999975], [107.21687330900005, -6.461359669999979], [107.17395034500004, -6.485828759999947], [107.16503157600005, -6.503112914999974], [107.19310774900003, -6.57828583099996], [107.22051254800004, -6.59074893199994]]]}}, {"type": "Feature", "properties": {"name": "Kota Bekasi"}, "geometry": {"type": "Polygon", "coordinates": [[[106.91861382900004, -6.396011727999962], [106.95113794500008, -6.346860166999932], [106.99100455000007, -6.36327748399998], [107.03725312000006, -6.321350602999928], [107.01436289100008, -6.279703672999972], [107.03378384100006, -6.198784046999947], [106.97300420900007, -6.174971727999946], [106.94400252100007, -6.252396328999964], [106.90535653700005, -6.260236435999957], [106.92279986200003, -6.314310230999979], [106.91426656300007, -6.36554481099995], [106.91861382900004, -6.396011727999962]]]}}, {"type": "Feature", "properties": {"name": "Kota Bogor"}, "geometry": {"type": "Polygon", "coordinates": [[[106.83578860500006, -6.678451140999925], [106.84693779300005, -6.642739813999981], [106.83794445900008, -6.579862420999973], [106.81751933200007, -6.53875562199994], [106.73552721500005, -6.554999496999926], [106.81906200900005, -6.671999500999959], [106.83578860500006, -6.678451140999925]]]}}, {"type": "Feature", "properties": {"name": "Ciamis"}, "geometry": {"type": "Polygon", "coordinates": [[[108.42708000200008, -7.500570876999973], [108.48538888900003, -7.528491666999969], [108.52087284600009, -7.523789077999936], [108.52777902800005, -7.573915372999977], [108.59766350800004, -7.562083789999974], [108.64661263500005, -7.540278497999964], [108.64871511900009, -7.467887340999937], [108.71811031500005, -7.469421851999925], [108.71793979300008, -7.426579727999979], [108.66208738000006, -7.35249969299997], [108.65050241100005, -7.388222323999969], [108.60023687300009, -7.394469504999961], [108.56949436900004, -7.437689403999968], [108.46954104300005, -7.380359501999976], [108.48917296600007, -7.350014032999979], [108.55918962500004, -7.332261099999926], [108.55656841000007, -7.287030942999934], [108.58510999100008, -7.240790870999945], [108.56296120700006, -7.194385361999935], [108.52587, -7.181057], [108.505159, -7.131448], [108.43922, -7.117595], [108.38574254400004, -7.073510165999949], [108.35138756400005, -7.052365698999949], [108.24500793600004, -7.066621794999946], [108.20963066500008, -7.053396314999929], [108.16702539500005, -7.063493907999941], [108.21677619700006, -7.091786127999967], [108.21617937500008, -7.131297372999938], [108.19242728800003, -7.173347382999964], [108.19331731000005, -7.269313203999957], [108.20214976400007, -7.286511060999942], [108.28819373000005, -7.335825539999973], [108.30944824500006, -7.337143332999972], [108.34219105900007, -7.355801430999975], [108.40798274200006, -7.365259981999941], [108.39593341200003, -7.408226815999967], [108.42061497900005, -7.423076646999959], [108.42708000200008, -7.500570876999973]]]}}, {"type": "Feature", "properties": {"name": "Kota Cirebon"}, "geometry": {"type": "Polygon", "coordinates": [[[108.56205457500005, -6.691326604999972], [108.52348391900006, -6.734393176999959], [108.52960491900006, -6.779184434999934], [108.59111272000007, -6.743301054999961], [108.56205457500005, -6.691326604999972]]]}}, {"type": "Feature", "properties": {"name": "Kota Banjar"}, "geometry": {"type": "Polygon", "coordinates": [[[108.55918962500004, -7.332261099999926], [108.48917296600007, -7.350014032999979], [108.46954104300005, -7.380359501999976], [108.56949436900004, -7.437689403999968], [108.60023687300009, -7.394469504999961], [108.65050241100005, -7.388222323999969], [108.66208738000006, -7.35249969299997], [108.59997209200009, -7.350474568999971], [108.55918962500004, -7.332261099999926]]]}}, {"type": "Feature", "properties": {"name": "Pangandaran"}, "geometry": {"type": "Polygon", "coordinates": [[[108.34076565900006, -7.816824678999978], [108.43272534800008, -7.820892342999969], [108.49573184500008, -7.793238534999944], [108.49680684900005, -7.740191459999949], [108.51666085100004, -7.698658103999946], [108.58386436900008, -7.68412838699993], [108.66351801800005, -7.692101732999959], [108.69513171400007, -7.675616701999957], [108.76249670600004, -7.69644760999995], [108.80113140200007, -7.672818009999958], [108.73723674400009, -7.610281645999976], [108.75473296000007, -7.55907743399996], [108.71811031500005, -7.469421851999925], [108.64871511900009, -7.467887340999937], [108.64661263500005, -7.540278497999964], [108.59766350800004, -7.562083789999974], [108.52777902800005, -7.573915372999977], [108.52087284600009, -7.523789077999936], [108.48538888900003, -7.528491666999969], [108.42708000200008, -7.500570876999973], [108.37209773900008, -7.479476253999962], [108.33337805200006, -7.515930717999936], [108.36142933300005, -7.600491943999941], [108.36155438900005, -7.662372479999931], [108.31299653900004, -7.724300914999958], [108.32373891700007, -7.795616797999969], [108.34076565900006, -7.816824678999978]]]}}, {"type": "Feature", "properties": {"name": "Bogor"}, "geometry": {"type": "Polygon", "coordinates": [[[106.52470928100007, -6.76237699099994], [106.56955, -6.721905], [106.63309866000009, -6.754876407999973], [106.68260063900004, -6.746252750999929], [106.74152455200004, -6.715563557999928], [106.77825069400006, -6.755018555999925], [106.899536, -6.788109], [106.96520830500003, -6.770465440999942], [107.00353568600008, -6.687032861999967], [107.04266105800008, -6.656738813999937], [107.13510793600005, -6.670146988999932], [107.22331116000004, -6.624737639999978], [107.22715544000005, -6.60220335899993], [107.22051254800004, -6.59074893199994], [107.19310774900003, -6.57828583099996], [107.16503157600005, -6.503112914999974], [107.17395034500004, -6.485828759999947], [107.12912764900005, -6.471764776999976], [107.01000904600005, -6.402356048999934], [106.99100455000007, -6.36327748399998], [106.95113794500008, -6.346860166999932], [106.91861382900004, -6.396011727999962], [106.88103341000004, -6.448110526999926], [106.85544636500003, -6.45555257999996], [106.73837200100007, -6.438800000999947], [106.72093341700008, -6.362186773999952], [106.65098391200007, -6.362190372999976], [106.60396562600005, -6.361875494999936], [106.57326640300005, -6.338535104999949], [106.48289161900004, -6.34939787899998], [106.46787608900007, -6.303592913999978], [106.42670081800009, -6.347891806999939], [106.45100144600008, -6.413595022999971], [106.40364270700007, -6.453708978999941], [106.40379047500005, -6.516722350999942], [106.43001082100005, -6.580048113999965], [106.42912687300009, -6.680207334999977], [106.46677086700004, -6.75100309499993], [106.52470928100007, -6.76237699099994]], [[106.83578860500006, -6.678451140999925], [106.81906200900005, -6.671999500999959], [106.73552721500005, -6.554999496999926], [106.81751933200007, -6.53875562199994], [106.83794445900008, -6.579862420999973], [106.84693779300005, -6.642739813999981], [106.83578860500006, -6.678451140999925]]]}}, {"type": "Feature", "properties": {"name": "Majalengka"}, "geometry": {"type": "Polygon", "coordinates": [[[108.16702539500005, -7.063493907999941], [108.20963066500008, -7.053396314999929], [108.24500793600004, -7.066621794999946], [108.35138756400005, -7.052365698999949], [108.38574254400004, -7.073510165999949], [108.38566, -6.952741], [108.40765, -6.892491], [108.39796305300007, -6.795139257999949], [108.36553198100006, -6.759416461999933], [108.36756138400006, -6.69854485999997], [108.33673, -6.670331998999927], [108.32358557400005, -6.620817042999931], [108.2763, -6.591750998999942], [108.20739751700006, -6.573372226999936], [108.18773510900007, -6.609824800999945], [108.14845863700003, -6.606277688999967], [108.11569983200008, -6.553417520999972], [108.07510381400004, -6.575046847999943], [108.04312404500007, -6.639104527999962], [108.11782466900007, -6.705420807999928], [108.16367930300004, -6.727764649999926], [108.16296645300008, -6.830613616999926], [108.21313591200004, -6.894885208999938], [108.21647775600007, -6.931960701999969], [108.18043039300005, -6.956468832999974], [108.13768161200005, -7.038779384999941], [108.16702539500005, -7.063493907999941]]]}}, {"type": "Feature", "properties": {"name": "Kota Depok"}, "geometry": {"type": "Polygon", "coordinates": [[[106.72093341700008, -6.362186773999952], [106.73837200100007, -6.438800000999947], [106.85544636500003, -6.45555257999996], [106.88103341000004, -6.448110526999926], [106.91861382900004, -6.396011727999962], [106.91426656300007, -6.36554481099995], [106.88467710200007, -6.372512970999935], [106.84004460000006, -6.335894267999947], [106.77986321600008, -6.31652097999995], [106.76931535600005, -6.361503122999977], [106.72093341700008, -6.362186773999952]]]}}, {"type": "Feature", "properties": {"name": "Subang"}, "geometry": {"type": "Polygon", "coordinates": [[[107.75000008200004, -6.812844997999946], [107.81615452800008, -6.800826694999955], [107.83984909000009, -6.760662887999956], [107.82764480700007, -6.688031653999928], [107.85132287300007, -6.65132157599993], [107.85541626400004, -6.579062721999946], [107.90950660300007, -6.537573461999955], [107.92082557800006, -6.512434574999929], [107.89008862200006, -6.442900263999945], [107.90011694300006, -6.387137453999969], [107.92333448100004, -6.360173207999935], [107.91964404100008, -6.249802342999942], [107.88868796100007, -6.224534563999953], [107.88417398100006, -6.184822057999952], [107.81870809400004, -6.186957893999931], [107.80518156300008, -6.220902548999959], [107.67885542500005, -6.237216081999975], [107.64294133000004, -6.215523571999938], [107.58211530200003, -6.256132374999936], [107.57904827400006, -6.322251069999936], [107.52940379900008, -6.418358085999955], [107.56388863500007, -6.49006389799996], [107.55784617300009, -6.561954240999967], [107.58581554500006, -6.59158969899994], [107.579942, -6.635766998999941], [107.59377299100004, -6.728543997999964], [107.62902, -6.77413299899996], [107.66931925600005, -6.777221447999977], [107.74615679900006, -6.813650491999965], [107.75000008200004, -6.812844997999946]]]}}, {"type": "Feature", "properties": {"name": "Sukabumi"}, "geometry": {"type": "Polygon", "coordinates": [[[106.39712055500007, -6.978455205999978], [106.44301593700004, -6.952889349999964], [106.51247228700004, -6.965621007999971], [106.54185057000007, -6.983717162999937], [106.54368045900009, -7.056049670999926], [106.48424432700006, -7.104007429999967], [106.44971529400004, -7.149431217999961], [106.43974526100004, -7.190578946999949], [106.40143660500007, -7.186728376999952], [106.37290223000008, -7.308083343999954], [106.40393852000005, -7.356237653999926], [106.48749862800008, -7.375229092999973], [106.52374122000003, -7.407856425999967], [106.79379539200005, -7.436830073999943], [106.77905714600007, -7.399144964999948], [106.82256996300003, -7.363065989999939], [106.86016514000005, -7.363788040999964], [106.96716897200008, -7.312170025999933], [106.97879806400005, -7.241656004999925], [106.96444564900008, -7.142297707999944], [106.93692663500008, -7.109763293999947], [106.97297002100004, -7.018395101999943], [107.04564414900005, -7.042161298999929], [107.03231207000005, -6.981157021999934], [107.04854668600007, -6.942112469999927], [107.03225899000006, -6.872915709999972], [106.99610466700005, -6.834704146999968], [106.96520830500003, -6.770465440999942], [106.899536, -6.788109], [106.77825069400006, -6.755018555999925], [106.74152455200004, -6.715563557999928], [106.68260063900004, -6.746252750999929], [106.63309866000009, -6.754876407999973], [106.56955, -6.721905], [106.52470928100007, -6.76237699099994], [106.49790620700009, -6.790971203999959], [106.43559529400005, -6.824206702999959], [106.43124165100005, -6.861737390999963], [106.39303874800004, -6.900416919999941], [106.39712055500007, -6.978455205999978]], [[106.903428, -6.935938], [106.91435446800006, -6.894101682999974], [106.95892491800004, -6.919312268999931], [106.952397, -6.963996], [106.89826846500006, -6.977644707999957], [106.903428, -6.935938]]]}}, {"type": "Feature", "properties": {"name": "Sumedang"}, "geometry": {"type": "Polygon", "coordinates": [[[108.12622686300006, -7.03719939299998], [108.13768161200005, -7.038779384999941], [108.18043039300005, -6.956468832999974], [108.21647775600007, -6.931960701999969], [108.21313591200004, -6.894885208999938], [108.16296645300008, -6.830613616999926], [108.16367930300004, -6.727764649999926], [108.11782466900007, -6.705420807999928], [108.04312404500007, -6.639104527999962], [108.02802770800008, -6.663958629999968], [107.93947355300008, -6.625350078999929], [107.90607866300007, -6.593852778999974], [107.85541626400004, -6.579062721999946], [107.85132287300007, -6.65132157599993], [107.82764480700007, -6.688031653999928], [107.83984909000009, -6.760662887999956], [107.81615452800008, -6.800826694999955], [107.75000008200004, -6.812844997999946], [107.74098691500006, -6.85486586299993], [107.75871390000009, -6.898172052999939], [107.75565942200006, -6.948209675999976], [107.84239832500003, -6.969480664999935], [107.91466343900004, -6.952776916999937], [107.96769281400009, -6.962043850999976], [108.04231354300003, -6.996371599999975], [108.08211625100006, -6.987134568999977], [108.12622686300006, -7.03719939299998]]]}}, {"type": "Feature", "properties": {"name": "Kota Sukabumi"}, "geometry": {"type": "Polygon", "coordinates": [[[106.903428, -6.935938], [106.89826846500006, -6.977644707999957], [106.952397, -6.963996], [106.95892491800004, -6.919312268999931], [106.91435446800006, -6.894101682999974], [106.903428, -6.935938]]]}}, {"type": "Feature", "properties": {"name": "Kota Bandung"}, "geometry": {"type": "Polygon", "coordinates": [[[107.54554618100008, -6.926755134999951], [107.58341344900003, -6.961849456999971], [107.69428443400005, -6.969499126999949], [107.70376245300008, -6.906855750999966], [107.63389476300006, -6.888122027999941], [107.62393276300008, -6.861886282999933], [107.57157297700007, -6.88213783599997], [107.54554618100008, -6.926755134999951]]]}}, {"type": "Feature", "properties": {"name": "Purwakarta"}, "geometry": {"type": "Polygon", "coordinates": [[[107.59377299100004, -6.728543997999964], [107.579942, -6.635766998999941], [107.58581554500006, -6.59158969899994], [107.55784617300009, -6.561954240999967], [107.56388863500007, -6.49006389799996], [107.52940379900008, -6.418358085999955], [107.50032537600003, -6.408376680999936], [107.43506634500005, -6.458077641999978], [107.34025739700007, -6.479322791999948], [107.22051254800004, -6.59074893199994], [107.22715544000005, -6.60220335899993], [107.26274561900004, -6.634161997999968], [107.25144834100007, -6.693290546999947], [107.30214897000008, -6.728436952999971], [107.339439, -6.697375], [107.40740978500008, -6.688960268999949], [107.45211802000006, -6.700313306999931], [107.512568, -6.754424], [107.56136194200008, -6.773154432999945], [107.59377299100004, -6.728543997999964]]]}}, {"type": "Feature", "properties": {"name": "Tasikmalaya"}, "geometry": {"type": "Polygon", "coordinates": [[[108.34076565900006, -7.816824678999978], [108.32373891700007, -7.795616797999969], [108.31299653900004, -7.724300914999958], [108.36155438900005, -7.662372479999931], [108.36142933300005, -7.600491943999941], [108.33337805200006, -7.515930717999936], [108.37209773900008, -7.479476253999962], [108.42708000200008, -7.500570876999973], [108.42061497900005, -7.423076646999959], [108.39593341200003, -7.408226815999967], [108.40798274200006, -7.365259981999941], [108.34219105900007, -7.355801430999975], [108.30944824500006, -7.337143332999972], [108.28686992500008, -7.347164464999935], [108.27614404600007, -7.417327344999933], [108.18560982700006, -7.430175274999954], [108.16428561000004, -7.364933386999951], [108.15996409600007, -7.292922540999939], [108.19331731000005, -7.269313203999957], [108.19242728800003, -7.173347382999964], [108.21617937500008, -7.131297372999938], [108.21677619700006, -7.091786127999967], [108.16702539500005, -7.063493907999941], [108.13768161200005, -7.038779384999941], [108.12622686300006, -7.03719939299998], [108.13635084000003, -7.060369962999971], [108.09035523900008, -7.106416557999978], [108.06865024300004, -7.211599822999972], [107.98954088300007, -7.245200392999948], [107.97355862800003, -7.270319989999962], [107.92251248600007, -7.290450723999925], [107.94480205100007, -7.32869028999994], [107.90896910900005, -7.368162465999944], [107.94094215200005, -7.393387250999979], [107.95337039600008, -7.460348520999958], [107.93962732200004, -7.581960382999966], [107.91891495100003, -7.594547391999981], [107.93114714200004, -7.683295269999974], [107.91006792300004, -7.731059800999958], [108.04775547300005, -7.757725068999946], [108.14505058100008, -7.785937664999949], [108.34076565900006, -7.816824678999978]]]}}, {"type": "Feature", "properties": {"name": "Kota Cimahi"}, "geometry": {"type": "Polygon", "coordinates": [[[107.54554618100008, -6.926755134999951], [107.57157297700007, -6.88213783599997], [107.54935652800003, -6.838545013999976], [107.51329927700004, -6.885249495999972], [107.52565937400004, -6.921212283999978], [107.54554618100008, -6.926755134999951]]]}}, {"type": "Feature", "properties": {"name": "Bandung Barat"}, "geometry": {"type": "Polygon", "coordinates": [[[107.31961113800008, -7.106505015999971], [107.42214000100006, -7.07516], [107.438226, -7.046489], [107.47553, -7.05143], [107.47719188800005, -7.004816543999937], [107.504901, -6.981404], [107.52565937400004, -6.921212283999978], [107.51329927700004, -6.885249495999972], [107.54935652800003, -6.838545013999976], [107.57157297700007, -6.88213783599997], [107.62393276300008, -6.861886282999933], [107.661141, -6.832026], [107.72495800100006, -6.833522], [107.74615679900006, -6.813650491999965], [107.66931925600005, -6.777221447999977], [107.62902, -6.77413299899996], [107.59377299100004, -6.728543997999964], [107.56136194200008, -6.773154432999945], [107.512568, -6.754424], [107.45211802000006, -6.700313306999931], [107.40740978500008, -6.688960268999949], [107.339439, -6.697375], [107.30214897000008, -6.728436952999971], [107.28442587300009, -6.774384959999963], [107.35013195400006, -6.855436053999938], [107.27838720000005, -6.92546705999996], [107.22537858300007, -6.942354447999946], [107.18630389600008, -6.973570980999966], [107.19512755100004, -7.021828809999931], [107.31961113800008, -7.106505015999971]]]}}, {"type": "Feature", "properties": {"name": "Garut"}, "geometry": {"type": "Polygon", "coordinates": [[[107.42331921200008, -7.505204815999946], [107.59833938000008, -7.569963833999964], [107.68268769400004, -7.637950878999959], [107.69429870600004, -7.66919700099993], [107.78332720800006, -7.679007258999945], [107.83152939400009, -7.702583865999941], [107.84699183200007, -7.737085275999959], [107.91006792300004, -7.731059800999958], [107.93114714200004, -7.683295269999974], [107.91891495100003, -7.594547391999981], [107.93962732200004, -7.581960382999966], [107.95337039600008, -7.460348520999958], [107.94094215200005, -7.393387250999979], [107.90896910900005, -7.368162465999944], [107.94480205100007, -7.32869028999994], [107.92251248600007, -7.290450723999925], [107.97355862800003, -7.270319989999962], [107.98954088300007, -7.245200392999948], [108.06865024300004, -7.211599822999972], [108.09035523900008, -7.106416557999978], [108.13635084000003, -7.060369962999971], [108.12622686300006, -7.03719939299998], [108.08211625100006, -6.987134568999977], [108.04231354300003, -6.996371599999975], [107.96769281400009, -6.962043850999976], [107.91466343900004, -6.952776916999937], [107.89992027000005, -6.971787377999931], [107.91007384800008, -7.035920959999942], [107.83479217500008, -7.069370570999979], [107.81149919300009, -7.136551185999963], [107.74111692800005, -7.16911683099994], [107.71049634100007, -7.223789992999968], [107.69461496500008, -7.282853510999928], [107.61208682100005, -7.309764295999969], [107.55739723600004, -7.251450696999939], [107.47683786000005, -7.254575428999942], [107.45498838000009, -7.292309168999964], [107.48484064200005, -7.354644606999955], [107.47446191600005, -7.399793043999978], [107.43383982000006, -7.420406001999936], [107.42331921200008, -7.505204815999946]]]}}, {"type": "Feature", "properties": {"name": "Cianjur"}, "geometry": {"type": "Polygon", "coordinates": [[[106.79379539200005, -7.436830073999943], [106.88292011700008, -7.434916440999928], [107.08609709800004, -7.45318945899993], [107.23959098600005, -7.488038292999931], [107.42331921200008, -7.505204815999946], [107.43383982000006, -7.420406001999936], [107.47446191600005, -7.399793043999978], [107.48484064200005, -7.354644606999955], [107.45498838000009, -7.292309168999964], [107.47683786000005, -7.254575428999942], [107.41756763300003, -7.252498875999947], [107.35332211400004, -7.235513427999933], [107.31950564200008, -7.190953126999943], [107.31961113800008, -7.106505015999971], [107.19512755100004, -7.021828809999931], [107.18630389600008, -6.973570980999966], [107.22537858300007, -6.942354447999946], [107.27838720000005, -6.92546705999996], [107.35013195400006, -6.855436053999938], [107.28442587300009, -6.774384959999963], [107.30214897000008, -6.728436952999971], [107.25144834100007, -6.693290546999947], [107.26274561900004, -6.634161997999968], [107.22715544000005, -6.60220335899993], [107.22331116000004, -6.624737639999978], [107.13510793600005, -6.670146988999932], [107.04266105800008, -6.656738813999937], [107.00353568600008, -6.687032861999967], [106.96520830500003, -6.770465440999942], [106.99610466700005, -6.834704146999968], [107.03225899000006, -6.872915709999972], [107.04854668600007, -6.942112469999927], [107.03231207000005, -6.981157021999934], [107.04564414900005, -7.042161298999929], [106.97297002100004, -7.018395101999943], [106.93692663500008, -7.109763293999947], [106.96444564900008, -7.142297707999944], [106.97879806400005, -7.241656004999925], [106.96716897200008, -7.312170025999933], [106.86016514000005, -7.363788040999964], [106.82256996300003, -7.363065989999939], [106.77905714600007, -7.399144964999948], [106.79379539200005, -7.436830073999943]]]}}, {"type": "Feature", "properties": {"name": "Bandung"}, "geometry": {"type": "Polygon", "coordinates": [[[107.47683786000005, -7.254575428999942], [107.55739723600004, -7.251450696999939], [107.61208682100005, -7.309764295999969], [107.69461496500008, -7.282853510999928], [107.71049634100007, -7.223789992999968], [107.74111692800005, -7.16911683099994], [107.81149919300009, -7.136551185999963], [107.83479217500008, -7.069370570999979], [107.91007384800008, -7.035920959999942], [107.89992027000005, -6.971787377999931], [107.91466343900004, -6.952776916999937], [107.84239832500003, -6.969480664999935], [107.75565942200006, -6.948209675999976], [107.75871390000009, -6.898172052999939], [107.74098691500006, -6.85486586299993], [107.75000008200004, -6.812844997999946], [107.74615679900006, -6.813650491999965], [107.72495800100006, -6.833522], [107.661141, -6.832026], [107.62393276300008, -6.861886282999933], [107.63389476300006, -6.888122027999941], [107.70376245300008, -6.906855750999966], [107.69428443400005, -6.969499126999949], [107.58341344900003, -6.961849456999971], [107.54554618100008, -6.926755134999951], [107.52565937400004, -6.921212283999978], [107.504901, -6.981404], [107.47719188800005, -7.004816543999937], [107.47553, -7.05143], [107.438226, -7.046489], [107.42214000100006, -7.07516], [107.31961113800008, -7.106505015999971], [107.31950564200008, -7.190953126999943], [107.35332211400004, -7.235513427999933], [107.41756763300003, -7.252498875999947], [107.47683786000005, -7.254575428999942]]]}}, {"type": "Feature", "properties": {"name": "Kuningan"}, "geometry": {"type": "Polygon", "coordinates": [[[108.56296120700006, -7.194385361999935], [108.56224627700004, -7.171335200999977], [108.63507389600005, -7.138700808999943], [108.69545391200006, -7.15192138599997], [108.72601502800006, -7.115182814999969], [108.76670241700003, -7.113471416999971], [108.79202297400008, -7.003107635999982], [108.76046993700004, -6.988018534999981], [108.72176363900007, -6.990003491999971], [108.70767213900007, -6.937616258999981], [108.65312198500004, -6.903705029999969], [108.62103277500006, -6.910411728999975], [108.50988011700008, -6.856543430999977], [108.51185613200005, -6.799910434999958], [108.44403080900008, -6.781402961999959], [108.39796305300007, -6.795139257999949], [108.40765, -6.892491], [108.38566, -6.952741], [108.38574254400004, -7.073510165999949], [108.43922, -7.117595], [108.505159, -7.131448], [108.52587, -7.181057], [108.56296120700006, -7.194385361999935]]]}}]}